start=new Date('2021-10-25T00:00:00.000Z').valueOf();
sats=[{"MEAN_MOTION":"15.71472451","EPOCH":"2021-10-24T11:06:39.644640","REV_AT_EPOCH":"6443","LAUNCH_DATE":"2020-09-03","BSTAR":"0.00001088300000","APOAPSIS":"356.862","EPHEMERIS_TYPE":"0","CENTER_NAME":"EARTH","TLE_LINE2":"2 46369  53.0501 285.2652 0003226  20.7837 339.3311 15.71472451 64431","OBJECT_ID":"2020-062AW","MEAN_ELEMENT_THEORY":"SGP4","ARG_OF_PERICENTER":"20.7837","MEAN_MOTION_DOT":"0.00000812","COUNTRY_CODE":"US","GP_ID":"188069550","CLASSIFICATION_TYPE":"U","MEAN_ANOMALY":"339.3311","TIME_SYSTEM":"UTC","ECCENTRICITY":"0.00032260","SEMIMAJOR_AXIS":"6732.825","RA_OF_ASC_NODE":"285.2652","ELEMENT_SET_NO":"999","FILE":"3182197","DECAY_DATE":null,"REF_FRAME":"TEME","MEAN_MOTION_DDOT":"0.0000000000000","SITE":"AFETR","OBJECT_TYPE":"PAYLOAD","PERIAPSIS":"352.518","PERIOD":"91.634","NORAD_CAT_ID":"46369","RCS_SIZE":"LARGE","TLE_LINE1":"1 46369U 20062AW  21297.46295885  .00000812  00000-0  10883-4 0  9991","OBJECT_NAME":"STARLINK-1662","INCLINATION":"53.0501"},{"PERIAPSIS":"546.484","PERIOD":"95.592","NORAD_CAT_ID":"46370","RCS_SIZE":"LARGE","TLE_LINE1":"1 46370U 20062AX  21297.79663495  .00000245  00000-0  35361-4 0  9993","OBJECT_NAME":"STARLINK-1670","INCLINATION":"53.0558","ECCENTRICITY":"0.00010680","SEMIMAJOR_AXIS":"6925.359","RA_OF_ASC_NODE":"325.3592","ELEMENT_SET_NO":"999","FILE":"3182768","REF_FRAME":"TEME","DECAY_DATE":null,"MEAN_MOTION_DDOT":"0.0000000000000","SITE":"AFETR","OBJECT_TYPE":"PAYLOAD","LAUNCH_DATE":"2020-09-03","BSTAR":"0.00003536100000","APOAPSIS":"547.963","EPHEMERIS_TYPE":"0","CENTER_NAME":"EARTH","TLE_LINE2":"2 46370  53.0558 325.3592 0001068  84.8290 275.2821 15.06396754 63904","OBJECT_ID":"2020-062AX","MEAN_ELEMENT_THEORY":"SGP4","MEAN_MOTION_DOT":"0.00000245","ARG_OF_PERICENTER":"84.8290","GP_ID":"188104878","COUNTRY_CODE":"US","CLASSIFICATION_TYPE":"U","MEAN_ANOMALY":"275.2821","TIME_SYSTEM":"UTC","MEAN_MOTION":"15.06396754","EPOCH":"2021-10-24T19:07:09.259680","REV_AT_EPOCH":"6390"},{"APOAPSIS":"548.260","BSTAR":"0.00003440900000","LAUNCH_DATE":"2020-09-03","TIME_SYSTEM":"UTC","COUNTRY_CODE":"US","GP_ID":"188106130","CLASSIFICATION_TYPE":"U","MEAN_ANOMALY":"295.6533","MEAN_MOTION_DOT":"0.00000231","ARG_OF_PERICENTER":"64.4611","OBJECT_ID":"2020-062AY","MEAN_ELEMENT_THEORY":"SGP4","TLE_LINE2":"2 46371  53.0538 325.3961 0001504  64.4611 295.6533 15.06398441 63900","CENTER_NAME":"EARTH","EPHEMERIS_TYPE":"0","EPOCH":"2021-10-24T18:56:31.565472","MEAN_MOTION":"15.06398441","REV_AT_EPOCH":"6390","RCS_SIZE":"LARGE","NORAD_CAT_ID":"46371","PERIOD":"95.592","PERIAPSIS":"546.177","INCLINATION":"53.0538","OBJECT_NAME":"STARLINK-1688","TLE_LINE1":"1 46371U 20062AY  21297.78925423  .00000231  00000-0  34409-4 0  9992","SITE":"AFETR","MEAN_MOTION_DDOT":"0.0000000000000","REF_FRAME":"TEME","DECAY_DATE":null,"FILE":"3182768","SEMIMAJOR_AXIS":"6925.353","RA_OF_ASC_NODE":"325.3961","ELEMENT_SET_NO":"999","ECCENTRICITY":"0.00015040","OBJECT_TYPE":"PAYLOAD"},{"TLE_LINE2":"2 46372  53.0549 346.5350 0001407  74.7535 285.3609 15.06395262 63763","OBJECT_ID":"2020-062AZ","MEAN_ELEMENT_THEORY":"SGP4","EPHEMERIS_TYPE":"0","CENTER_NAME":"EARTH","TIME_SYSTEM":"UTC","MEAN_MOTION_DOT":"0.00000240","ARG_OF_PERICENTER":"74.7535","CLASSIFICATION_TYPE":"U","GP_ID":"188075545","COUNTRY_CODE":"US","MEAN_ANOMALY":"285.3609","LAUNCH_DATE":"2020-09-03","APOAPSIS":"548.202","BSTAR":"0.00003504000000","REV_AT_EPOCH":"6376","MEAN_MOTION":"15.06395262","EPOCH":"2021-10-24T12:47:38.109408","TLE_LINE1":"1 46372U 20062AZ  21297.53307997  .00000240  00000-0  35040-4 0  9998","INCLINATION":"53.0549","OBJECT_NAME":"STARLINK-1689","PERIOD":"95.592","NORAD_CAT_ID":"46372","PERIAPSIS":"546.254","RCS_SIZE":"LARGE","OBJECT_TYPE":"PAYLOAD","SEMIMAJOR_AXIS":"6925.363","RA_OF_ASC_NODE":"346.5350","ELEMENT_SET_NO":"999","ECCENTRICITY":"0.00014070","MEAN_MOTION_DDOT":"0.0000000000000","SITE":"AFETR","FILE":"3182391","REF_FRAME":"TEME","DECAY_DATE":null},{"MEAN_MOTION":"15.06406221","EPOCH":"2021-10-24T16:18:36.770400","REV_AT_EPOCH":"6458","LAUNCH_DATE":"2020-09-03","APOAPSIS":"551.239","BSTAR":"0.00010017000000","TLE_LINE2":"2 46374  53.0548 275.8805 0005840   5.8392 354.2664 15.06406221 64580","OBJECT_ID":"2020-062BB","MEAN_ELEMENT_THEORY":"SGP4","EPHEMERIS_TYPE":"0","CENTER_NAME":"EARTH","TIME_SYSTEM":"UTC","MEAN_MOTION_DOT":"0.00001210","ARG_OF_PERICENTER":"5.8392","COUNTRY_CODE":"US","GP_ID":"188105129","MEAN_ANOMALY":"354.2664","CLASSIFICATION_TYPE":"U","SEMIMAJOR_AXIS":"6925.329","RA_OF_ASC_NODE":"275.8805","ELEMENT_SET_NO":"999","ECCENTRICITY":"0.00058400","MEAN_MOTION_DDOT":"0.0000000000000","SITE":"AFETR","FILE":"3182768","REF_FRAME":"TEME","DECAY_DATE":null,"OBJECT_TYPE":"PAYLOAD","PERIOD":"95.592","NORAD_CAT_ID":"46374","PERIAPSIS":"543.150","RCS_SIZE":"LARGE","TLE_LINE1":"1 46374U 20062BB  21297.67959225  .00001210  00000-0  10017-3 0  9996","INCLINATION":"53.0548","OBJECT_NAME":"STARLINK-1711"},{"TIME_SYSTEM":"UTC","GP_ID":"188070302","CLASSIFICATION_TYPE":"U","COUNTRY_CODE":"US","MEAN_ANOMALY":"286.2112","MEAN_MOTION_DOT":"-0.00000102","ARG_OF_PERICENTER":"73.9012","MEAN_ELEMENT_THEORY":"SGP4","OBJECT_ID":"2020-062BC","TLE_LINE2":"2 46375  53.0538 301.7078 0001231  73.9012 286.2112 15.06400315 64205","CENTER_NAME":"EARTH","EPHEMERIS_TYPE":"0","APOAPSIS":"548.065","BSTAR":"0.00001201000000","LAUNCH_DATE":"2020-09-03","REV_AT_EPOCH":"6420","EPOCH":"2021-10-24T11:52:34.647744","MEAN_MOTION":"15.06400315","INCLINATION":"53.0538","OBJECT_NAME":"STARLINK-1724","TLE_LINE1":"1 46375U 20062BC  21297.49484546 -.00000102  00000-0  12010-4 0  9992","RCS_SIZE":"LARGE","NORAD_CAT_ID":"46375","PERIOD":"95.592","PERIAPSIS":"546.360","OBJECT_TYPE":"PAYLOAD","SITE":"AFETR","MEAN_MOTION_DDOT":"0.0000000000000","DECAY_DATE":null,"REF_FRAME":"TEME","FILE":"3182197","RA_OF_ASC_NODE":"301.7078","SEMIMAJOR_AXIS":"6925.348","ELEMENT_SET_NO":"999","ECCENTRICITY":"0.00012310"},{"EPHEMERIS_TYPE":"0","CENTER_NAME":"EARTH","TLE_LINE2":"2 46376  53.0532 300.7550 0001260  80.7059 279.4073 15.06398729 64231","MEAN_ELEMENT_THEORY":"SGP4","OBJECT_ID":"2020-062BD","MEAN_MOTION_DOT":"-0.00000443","ARG_OF_PERICENTER":"80.7059","GP_ID":"188105630","CLASSIFICATION_TYPE":"U","COUNTRY_CODE":"US","MEAN_ANOMALY":"279.4073","TIME_SYSTEM":"UTC","LAUNCH_DATE":"2020-09-03","BSTAR":"-0.00001085300000","APOAPSIS":"548.090","REV_AT_EPOCH":"6423","MEAN_MOTION":"15.06398729","EPOCH":"2021-10-24T17:00:24.715296","TLE_LINE1":"1 46376U 20062BD  21297.70861939 -.00000443  00000-0 -10853-4 0  9994","OBJECT_NAME":"STARLINK-1742","INCLINATION":"53.0532","PERIAPSIS":"546.345","PERIOD":"95.592","NORAD_CAT_ID":"46376","RCS_SIZE":"LARGE","OBJECT_TYPE":"PAYLOAD","ECCENTRICITY":"0.00012600","SEMIMAJOR_AXIS":"6925.352","RA_OF_ASC_NODE":"300.7550","ELEMENT_SET_NO":"999","FILE":"3182768","DECAY_DATE":null,"REF_FRAME":"TEME","MEAN_MOTION_DDOT":"0.0000000000000","SITE":"AFETR"},{"OBJECT_TYPE":"PAYLOAD","DECAY_DATE":null,"REF_FRAME":"TEME","FILE":"3182768","SITE":"AFETR","MEAN_MOTION_DDOT":"0.0000000000000","ECCENTRICITY":"0.00014810","SEMIMAJOR_AXIS":"6925.370","RA_OF_ASC_NODE":"300.7053","ELEMENT_SET_NO":"999","OBJECT_NAME":"STARLINK-1751","INCLINATION":"53.0537","TLE_LINE1":"1 46378U 20062BF  21297.71969159 -.00000137  00000-0  96948-5 0  9999","RCS_SIZE":"LARGE","PERIAPSIS":"546.209","NORAD_CAT_ID":"46378","PERIOD":"95.593","REV_AT_EPOCH":"6423","EPOCH":"2021-10-24T17:16:21.353376","MEAN_MOTION":"15.06393137","GP_ID":"188105881","COUNTRY_CODE":"US","CLASSIFICATION_TYPE":"U","MEAN_ANOMALY":"286.3043","ARG_OF_PERICENTER":"73.8108","MEAN_MOTION_DOT":"-0.00000137","TIME_SYSTEM":"UTC","CENTER_NAME":"EARTH","EPHEMERIS_TYPE":"0","MEAN_ELEMENT_THEORY":"SGP4","OBJECT_ID":"2020-062BF","TLE_LINE2":"2 46378  53.0537 300.7053 0001481  73.8108 286.3043 15.06393137 64231","BSTAR":"0.00000969480000","APOAPSIS":"548.260","LAUNCH_DATE":"2020-09-03"},{"ECCENTRICITY":"0.00012270","SEMIMAJOR_AXIS":"6925.362","RA_OF_ASC_NODE":"326.4894","ELEMENT_SET_NO":"999","FILE":"3182197","DECAY_DATE":null,"REF_FRAME":"TEME","MEAN_MOTION_DDOT":"0.0000000000000","SITE":"AFETR","OBJECT_TYPE":"PAYLOAD","PERIAPSIS":"546.377","PERIOD":"95.592","NORAD_CAT_ID":"46380","RCS_SIZE":"LARGE","TLE_LINE1":"1 46380U 20062BH  21297.54229619 -.00000658  00000-0 -25311-4 0  9997","OBJECT_NAME":"STARLINK-1758","INCLINATION":"53.0537","MEAN_MOTION":"15.06395610","EPOCH":"2021-10-24T13:00:54.390816","REV_AT_EPOCH":"6386","LAUNCH_DATE":"2020-09-03","BSTAR":"-0.00002531100000","APOAPSIS":"548.077","EPHEMERIS_TYPE":"0","CENTER_NAME":"EARTH","TLE_LINE2":"2 46380  53.0537 326.4894 0001227  78.1717 281.9410 15.06395610 63869","OBJECT_ID":"2020-062BH","MEAN_ELEMENT_THEORY":"SGP4","ARG_OF_PERICENTER":"78.1717","MEAN_MOTION_DOT":"-0.00000658","GP_ID":"188069551","MEAN_ANOMALY":"281.9410","COUNTRY_CODE":"US","CLASSIFICATION_TYPE":"U","TIME_SYSTEM":"UTC"},{"OBJECT_NAME":"STARLINK-1769","INCLINATION":"53.0549","TLE_LINE1":"1 46382U 20062BK  21297.72337512  .00001512  00000-0  12039-3 0  9991","RCS_SIZE":"LARGE","PERIAPSIS":"546.268","PERIOD":"95.592","NORAD_CAT_ID":"46382","OBJECT_TYPE":"PAYLOAD","FILE":"3182768","REF_FRAME":"TEME","DECAY_DATE":null,"MEAN_MOTION_DDOT":"0.0000000000000","SITE":"AFETR","ECCENTRICITY":"0.00013680","ELEMENT_SET_NO":"999","SEMIMAJOR_AXIS":"6925.350","RA_OF_ASC_NODE":"300.6906","ARG_OF_PERICENTER":"77.3352","MEAN_MOTION_DOT":"0.00001512","COUNTRY_CODE":"US","GP_ID":"188104879","CLASSIFICATION_TYPE":"U","MEAN_ANOMALY":"282.7790","TIME_SYSTEM":"UTC","EPHEMERIS_TYPE":"0","CENTER_NAME":"EARTH","TLE_LINE2":"2 46382  53.0549 300.6906 0001368  77.3352 282.7790 15.06399473 64248","OBJECT_ID":"2020-062BK","MEAN_ELEMENT_THEORY":"SGP4","BSTAR":"0.00012039000000","APOAPSIS":"548.163","LAUNCH_DATE":"2020-09-03","REV_AT_EPOCH":"6424","EPOCH":"2021-10-24T17:21:39.610368","MEAN_MOTION":"15.06399473"}];
